[{"OBJECT_NAME":"STARLINK-1114","OBJECT_ID":"2020-001P","EPOCH":"2026-03-09T22:29:13.634304","MEAN_MOTION":15.50335733,"ECCENTRICITY":0.00083622,"INCLINATION":53.05,"RA_OF_ASC_NODE":328.1784,"ARG_OF_PERICENTER":120.9546,"MEAN_ANOMALY":239.2285,"EPHEMERIS_TYPE":0,"CLASSIFICATION_TYPE":"U","NORAD_CAT_ID":44927,"ELEMENT_SET_NO":999,"REV_AT_EPOCH":34013,"BSTAR":0.0018611875,"MEAN_MOTION_DOT":0.00108516,"MEAN_MOTION_DDOT":0},{"OBJECT_NAME":"ZK-1A R\/B","OBJECT_ID":"2025-256C","EPOCH":"2026-03-09T22:50:51.933408","MEAN_MOTION":15.05195406,"ECCENTRICITY":0.02187008,"INCLINATION":98.3035,"RA_OF_ASC_NODE":148.2706,"ARG_OF_PERICENTER":314.6999,"MEAN_ANOMALY":43.659,"EPHEMERIS_TYPE":0,"CLASSIFICATION_TYPE":"U","NORAD_CAT_ID":66411,"ELEMENT_SET_NO":999,"REV_AT_EPOCH":1815,"BSTAR":0.00055908382,"MEAN_MOTION_DOT":0.00013638,"MEAN_MOTION_DDOT":0}]
